NORAD_CAT_ID,OBJECT_NAME,OBJECT_TYPE,EPOCH,MEAN_MOTION,ECCENTRICITY,INCLINATION,RA_OF_ASC_NODE,ARG_OF_PERICENTER,MEAN_ANOMALY,BSTAR,MEAN_MOTION_DOT,MEAN_MOTION_DDOT,TLE_LINE0,TLE_LINE1,TLE_LINE2,SEMIMAJOR_AXIS,PERIOD,APOGEE,PERIGEE,DECAYED
51868.0,STARLINK-3578,PAYLOAD,2024-01-20 23:37:36,15.08831029,0.0001166,53.2159,264.8646,118.8175,241.2934,-0.00014647,-2.618e-05,0.0,0 STARLINK-3578,1 51868U 22022S   24020.98445196 -.00002618  00000-0 -14647-3 0  9994,2 51868  53.2159 264.8646 0001166 118.8175 241.2934 15.08831029105554,6917.908,95.438,540.579,538.966,0.0
51868.0,STARLINK-3578,PAYLOAD,2024-01-21 05:59:09,15.08830914,0.0001232,53.2162,263.6765,119.7466,240.3649,-0.00013174,-2.383e-05,0.0,0 STARLINK-3578,1 51868U 22022S   24021.24941332 -.00002383  00000-0 -13174-3 0  9990,2 51868  53.2162 263.6765 0001232 119.7466 240.3649 15.08830914105593,6917.908,95.438,540.625,538.921,0.0
51868.0,STARLINK-3578,PAYLOAD,2024-01-21 21:52:59,15.08856591,0.0001025,53.2156,260.703,86.2549,273.856,-0.00017436,-3.063e-05,0.0,0 STARLINK-3578,1 51868U 22022S   24021.91180069 -.00003063  00000-0 -17436-3 0  9997,2 51868  53.2156 260.7030 0001025  86.2549 273.8560 15.08856591105692,6917.83,95.437,540.404,538.986,0.0
51868.0,STARLINK-3578,PAYLOAD,2024-01-21 23:28:22,15.0885471,0.0001121,53.216,260.4064,91.0201,269.0919,-0.00010012,-1.882e-05,0.0,0 STARLINK-3578,1 51868U 22022S   24021.97803950 -.00001882  00000-0 -10012-3 0  9994,2 51868  53.2160 260.4064 0001121  91.0201 269.0919 15.08854710105705,6917.835,95.437,540.476,538.925,0.0
51868.0,STARLINK-3578,PAYLOAD,2024-01-22 20:08:24,15.08832724,0.000122,53.2152,256.5388,77.9535,282.1594,0.00030984,4.646e-05,0.0,0 STARLINK-3578,1 51868U 22022S   24022.83917517  .00004646  00000-0  30984-3 0  9994,2 51868  53.2152 256.5388 0001220  77.9535 282.1594 15.08832724105834,6917.903,95.438,540.612,538.924,0.0
51868.0,STARLINK-3578,PAYLOAD,2024-01-22 21:43:47,15.08834361,0.0001265,53.2151,256.2415,74.9157,285.1975,0.00032842,4.942e-05,0.0,0 STARLINK-3578,1 51868U 22022S   24022.90541494  .00004942  00000-0  32842-3 0  9993,2 51868  53.2151 256.2415 0001265  74.9157 285.1975 15.08834361105843,6917.898,95.438,540.638,538.888,0.0
51868.0,STARLINK-3578,PAYLOAD,2024-01-23 19:59:11,15.08850303,0.0001414,53.2153,252.0773,70.8316,289.2829,0.00023474,3.451e-05,0.0,0 STARLINK-3578,1 51868U 22022S   24023.83276804  .00003451  00000-0  23474-3 0  9991,2 51868  53.2153 252.0773 0001414  70.8316 289.2829 15.08850303105986,6917.849,95.437,540.692,538.736,0.0
51868.0,STARLINK-3578,PAYLOAD,2024-01-24 19:49:58,15.08841739,0.0001327,53.2165,247.6122,90.9176,269.1968,2.8127e-05,1.6e-06,0.0,0 STARLINK-3578,1 51868U 22022S   24024.82636973  .00000160  00000-0  28127-4 0  9993,2 51868  53.2165 247.6122 0001327  90.9176 269.1968 15.08841739106139,6917.875,95.437,540.658,538.822,0.0
51868.0,STARLINK-3578,PAYLOAD,2024-01-24 21:25:21,15.08841475,0.0001356,53.2164,247.3146,92.6861,267.4286,1.4409e-05,-5.9e-07,0.0,0 STARLINK-3578,1 51868U 22022S   24024.89260926 -.00000059  00000-0  14409-4 0  9997,2 51868  53.2164 247.3146 0001356  92.6861 267.4286 15.08841475106145,6917.876,95.437,540.679,538.803,0.0
51868.0,STARLINK-3578,PAYLOAD,2024-01-25 21:16:08,15.0883785,0.0001455,53.2173,242.8572,99.5042,260.6115,2.495e-05,1.09e-06,0.0,0 STARLINK-3578,1 51868U 22022S   24025.88621293  .00000109  00000-0  24950-4 0  9992,2 51868  53.2173 242.8572 0001455  99.5042 260.6115 15.08837850106299,6917.887,95.438,540.759,538.745,0.0
51868.0,STARLINK-3578,PAYLOAD,2024-01-26 21:06:55,15.08843302,0.0001409,53.2166,238.3991,106.1884,253.9263,0.00016036,2.265e-05,0.0,0 STARLINK-3578,1 51868U 22022S   24026.87980706  .00002265  00000-0  16036-3 0  9999,2 51868  53.2166 238.3991 0001409 106.1884 253.9263 15.08843302106449,6917.87,95.437,540.71,538.761,0.0
51868.0,STARLINK-3578,PAYLOAD,2024-01-27 19:22:20,15.08834573,0.0001499,53.2169,234.2365,108.9122,251.2032,6.5631e-05,7.57e-06,0.0,0 STARLINK-3578,1 51868U 22022S   24027.80717738  .00000757  00000-0  65631-4 0  9996,2 51868  53.2169 234.2365 0001499 108.9122 251.2032 15.08834573106586,6917.897,95.438,540.799,538.725,0.0
51868.0,STARLINK-3578,PAYLOAD,2024-01-28 12:51:35,15.0878361,0.0001754,53.2167,230.9634,105.1813,254.9373,0.00071346,0.00011068,0.0,0 STARLINK-3578,1 51868U 22022S   24028.53582192  .00011068  00000-0  71346-3 0  9997,2 51868  53.2167 230.9634 0001754 105.1813 254.9373 15.08783610106691,6918.053,95.441,541.131,538.704,0.0
51868.0,STARLINK-3578,PAYLOAD,2024-01-28 20:48:30,15.0882063,0.0001466,53.2166,229.4777,96.1481,263.9678,0.00030092,4.502e-05,0.0,0 STARLINK-3578,1 51868U 22022S   24028.86702115  .00004502  00000-0  30092-3 0  9990,2 51868  53.2166 229.4777 0001466  96.1481 263.9678 15.08820630106749,6917.94,95.439,540.819,538.79,0.0
51868.0,STARLINK-3578,PAYLOAD,2024-01-28 22:23:53,15.0884567,0.0001342,53.2163,229.1797,97.8691,262.2454,-3.2489e-05,-8.05e-06,0.0,0 STARLINK-3578,1 51868U 22022S   24028.93325450 -.00000805  00000-0 -32489-4 0  9998,2 51868  53.2163 229.1797 0001342  97.8691 262.2454 15.08845670106755,6917.863,95.437,540.656,538.8,0.0
51868.0,STARLINK-3578,PAYLOAD,2024-01-29 12:42:21,15.08841153,0.000132,53.2163,226.5034,82.2153,277.8989,0.00013652,1.886e-05,0.0,0 STARLINK-3578,1 51868U 22022S   24029.52941385  .00001886  00000-0  13652-3 0  9993,2 51868  53.2163 226.5034 0001320  82.2153 277.8989 15.08841153106844,6917.877,95.437,540.655,538.829,0.0
51868.0,STARLINK-3578,PAYLOAD,2024-01-30 12:33:08,15.08845296,0.0001201,53.216,222.0418,87.4122,272.7008,8.1945e-05,1.017e-05,0.0,0 STARLINK-3578,1 51868U 22022S   24030.52301258  .00001017  00000-0  81945-4 0  9991,2 51868  53.2160 222.0418 0001201  87.4122 272.7008 15.08845296106993,6917.864,95.437,540.56,538.898,0.0
51868.0,STARLINK-3578,PAYLOAD,2024-01-30 18:54:40,15.08844985,0.0001177,53.2158,220.852,88.8973,271.2153,7.1778e-05,8.55e-06,0.0,0 STARLINK-3578,1 51868U 22022S   24030.78797227  .00000855  00000-0  71778-4 0  9996,2 51868  53.2158 220.8520 0001177  88.8973 271.2153 15.08844985107036,6917.865,95.437,540.544,538.916,0.0
51868.0,STARLINK-3578,PAYLOAD,2024-01-31 12:23:55,15.08839814,0.0001355,53.2157,217.5829,76.6617,283.4526,1.2423e-05,-9e-07,0.0,0 STARLINK-3578,1 51868U 22022S   24031.51661703 -.00000090  00000-0  12423-4 0  9991,2 51868  53.2157 217.5829 0001355  76.6617 283.4526 15.08839814107144,6917.881,95.438,540.683,538.809,0.0
51868.0,STARLINK-3578,PAYLOAD,2024-02-01 21:47:01,15.08840785,0.0001418,53.2157,211.3387,77.002,283.113,8.4008e-05,1.049e-05,0.0,0 STARLINK-3578,1 51868U 22022S   24032.90765348  .00001049  00000-0  84008-4 0  9997,2 51868  53.2157 211.3387 0001418  77.0020 283.1130 15.08840785107358,6917.878,95.438,540.724,538.762,0.0
51868.0,STARLINK-3578,PAYLOAD,2024-02-02 12:05:29,15.08839831,0.0001275,53.2158,208.661,84.8294,275.2844,2.8737e-05,1.69e-06,0.0,0 STARLINK-3578,1 51868U 22022S   24033.50381531  .00000169  00000-0  28737-4 0  9991,2 51868  53.2158 208.6610 0001275  84.8294 275.2844 15.08839831107441,6917.881,95.438,540.628,538.864,0.0
51868.0,STARLINK-3578,PAYLOAD,2024-02-02 18:27:02,15.08840911,0.0001321,53.2157,207.47,96.7964,263.3178,5.076e-05,5.2e-06,0.0,0 STARLINK-3578,1 51868U 22022S   24033.76877397  .00000520  00000-0  50760-4 0  9991,2 51868  53.2157 207.4700 0001321  96.7964 263.3178 15.08840911107488,6917.878,95.437,540.656,538.829,0.0
51868.0,STARLINK-3578,PAYLOAD,2024-02-03 11:56:16,15.08834715,0.0001364,53.2167,204.2004,87.8509,272.2639,5.6915e-05,6.18e-06,0.0,0 STARLINK-3578,1 51868U 22022S   24034.49741854  .00000618  00000-0  56915-4 0  9996,2 51868  53.2167 204.2004 0001364  87.8509 272.2639 15.08834715107592,6917.897,95.438,540.705,538.818,0.0
51868.0,STARLINK-3578,PAYLOAD,2024-02-03 16:42:26,15.08834687,0.0001398,53.2168,203.3083,96.9252,263.1899,3.3174e-05,2.4e-06,0.0,0 STARLINK-3578,1 51868U 22022S   24034.69613998  .00000240  00000-0  33174-4 0  9998,2 51868  53.2168 203.3083 0001398  96.9252 263.1899 15.08834687107622,6917.897,95.438,540.729,538.795,0.0
51868.0,STARLINK-3578,PAYLOAD,2024-02-04 14:57:50,15.08841506,0.0001331,53.2166,199.1451,92.5658,267.5486,7.7671e-05,9.48e-06,0.0,0 STARLINK-3578,1 51868U 22022S   24035.62349677  .00000948  00000-0  77671-4 0  9997,2 51868  53.2166 199.1451 0001331  92.5658 267.5486 15.08841506107763,6917.876,95.437,540.662,538.82,0.0
51868.0,STARLINK-3578,PAYLOAD,2024-02-04 18:08:36,15.08843791,0.0001336,53.217,198.551,91.6026,268.5119,9.4293e-05,1.213e-05,0.0,0 STARLINK-3578,1 51868U 22022S   24035.75597502  .00001213  00000-0  94293-4 0  9998,2 51868  53.2170 198.5510 0001336  91.6026 268.5119 15.08843791107785,6917.869,95.437,540.658,538.81,0.0
51868.0,STARLINK-3578,PAYLOAD,2024-02-05 14:48:37,15.08835249,0.0001319,53.2174,194.6843,86.4305,273.6838,5.8984e-05,6.51e-06,0.0,0 STARLINK-3578,1 51868U 22022S   24036.61710317  .00000651  00000-0  58984-4 0  9997,2 51868  53.2174 194.6843 0001319  86.4305 273.6838 15.08835249107917,6917.895,95.438,540.672,538.847,0.0
51868.0,STARLINK-3578,PAYLOAD,2024-02-05 17:59:23,15.08838395,0.0001347,53.2174,194.0893,83.5313,276.5833,8.4886e-05,1.063e-05,0.0,0 STARLINK-3578,1 51868U 22022S   24036.74958095  .00001063  00000-0  84886-4 0  9996,2 51868  53.2174 194.0893 0001347  83.5313 276.5833 15.08838395107938,6917.885,95.438,540.682,538.818,0.0
51868.0,STARLINK-3578,PAYLOAD,2024-02-06 14:39:23,15.08880322,0.0001694,53.2179,190.2259,75.8872,284.2309,-0.00061689,-0.00010103,0.0,0 STARLINK-3578,1 51868U 22022S   24037.61069259 -.00010103  00000-0 -61689-3 0  9990,2 51868  53.2179 190.2259 0001694  75.8872 284.2309 15.08880322108062,6917.757,95.435,540.794,538.45,0.0
51868.0,STARLINK-3578,PAYLOAD,2024-02-06 17:50:12,15.08790173,0.0001903,53.2182,189.6328,68.1527,291.9667,0.00070123,0.00010875,0.0,0 STARLINK-3578,1 51868U 22022S   24037.74319842  .00010875  00000-0  70123-3 0  9997,2 51868  53.2182 189.6328 0001903  68.1527 291.9667 15.08790173108088,6918.033,95.441,541.214,538.581,0.0
